start=new Date('2023-04-28T00:00:00.000Z').valueOf();
sats=[{"RA_OF_ASC_NODE":"105.6737","SEMIMAJOR_AXIS":"6917.886","MEAN_MOTION_DDOT":"0.0000000000000","RCS_SIZE":"LARGE","PERIAPSIS":"538.809","DECAY_DATE":null,"GP_ID":"230837582","LAUNCH_DATE":"2022-07-07","REV_AT_EPOCH":"4487","MEAN_ANOMALY":"278.4304","OBJECT_TYPE":"PAYLOAD","TIME_SYSTEM":"UTC","INCLINATION":"53.2162","CLASSIFICATION_TYPE":"U","SITE":"AFETR","OBJECT_ID":"2022-076AB","TLE_LINE2":"2 53011  53.2162 105.6737 0001361  81.6842 278.4304 15.08838239 44878","REF_FRAME":"TEME","TLE_LINE1":"1 53011U 22076AB  23117.37957009  .00000733  00000-0  64147-4 0  9990","CENTER_NAME":"EARTH","MEAN_MOTION":"15.08838239","APOAPSIS":"540.692","EPOCH":"2023-04-27T09:06:34.855776","PERIOD":"95.438","ARG_OF_PERICENTER":"81.6842","MEAN_ELEMENT_THEORY":"SGP4","BSTAR":"0.00006414700000","ELEMENT_SET_NO":"999","ECCENTRICITY":"0.00013610","NORAD_CAT_ID":"53011","EPHEMERIS_TYPE":"0","OBJECT_NAME":"STARLINK-4265","COUNTRY_CODE":"US","MEAN_MOTION_DOT":"0.00000733","FILE":"3894751"},{"SEMIMAJOR_AXIS":"6917.778","RA_OF_ASC_NODE":"115.3153","GP_ID":"230847220","DECAY_DATE":null,"MEAN_MOTION_DDOT":"0.0000000000000","PERIAPSIS":"538.465","RCS_SIZE":"LARGE","MEAN_ANOMALY":"263.6623","REV_AT_EPOCH":"4522","OBJECT_TYPE":"PAYLOAD","LAUNCH_DATE":"2022-07-07","SITE":"AFETR","CLASSIFICATION_TYPE":"U","TIME_SYSTEM":"UTC","INCLINATION":"53.2146","REF_FRAME":"TEME","TLE_LINE2":"2 53012  53.2146 115.3153 0001702  96.4563 263.6623 15.08873632 45220","TLE_LINE1":"1 53012U 22076AC  23117.45963212  .00013175  00000-0  84353-3 0  9997","OBJECT_ID":"2022-076AC","APOAPSIS":"540.820","PERIOD":"95.435","EPOCH":"2023-04-27T11:01:52.215168","ARG_OF_PERICENTER":"96.4563","CENTER_NAME":"EARTH","MEAN_MOTION":"15.08873632","ECCENTRICITY":"0.00017020","NORAD_CAT_ID":"53012","ELEMENT_SET_NO":"999","BSTAR":"0.00084353000000","EPHEMERIS_TYPE":"0","MEAN_ELEMENT_THEORY":"SGP4","COUNTRY_CODE":"US","FILE":"3895028","MEAN_MOTION_DOT":"0.00013175","OBJECT_NAME":"STARLINK-4271"},{"APOAPSIS":"540.606","PERIOD":"95.438","EPOCH":"2023-04-27T08:55:59.242944","ARG_OF_PERICENTER":"80.9473","CENTER_NAME":"EARTH","MEAN_MOTION":"15.08839717","REF_FRAME":"TEME","TLE_LINE2":"2 53013  53.2154 105.7073 0001243  80.9473 279.1659 15.08839717 44879","TLE_LINE1":"1 53013U 22076AD  23117.37221346  .00001852  00000-0  13441-3 0  9993","OBJECT_ID":"2022-076AD","COUNTRY_CODE":"US","FILE":"3894751","MEAN_MOTION_DOT":"0.00001852","OBJECT_NAME":"STARLINK-4177","NORAD_CAT_ID":"53013","ECCENTRICITY":"0.00012430","ELEMENT_SET_NO":"999","BSTAR":"0.00013441000000","EPHEMERIS_TYPE":"0","MEAN_ELEMENT_THEORY":"SGP4","GP_ID":"230838581","DECAY_DATE":null,"MEAN_MOTION_DDOT":"0.0000000000000","PERIAPSIS":"538.886","RCS_SIZE":"LARGE","SEMIMAJOR_AXIS":"6917.881","RA_OF_ASC_NODE":"105.7073","SITE":"AFETR","CLASSIFICATION_TYPE":"U","TIME_SYSTEM":"UTC","INCLINATION":"53.2154","MEAN_ANOMALY":"279.1659","REV_AT_EPOCH":"4487","OBJECT_TYPE":"PAYLOAD","LAUNCH_DATE":"2022-07-07"},{"MEAN_MOTION_DDOT":"0.0000000000000","RCS_SIZE":"LARGE","PERIAPSIS":"538.848","DECAY_DATE":null,"GP_ID":"230847470","RA_OF_ASC_NODE":"105.6451","SEMIMAJOR_AXIS":"6917.879","TIME_SYSTEM":"UTC","INCLINATION":"53.2176","CLASSIFICATION_TYPE":"U","SITE":"AFETR","LAUNCH_DATE":"2022-07-07","MEAN_ANOMALY":"262.0697","REV_AT_EPOCH":"4534","OBJECT_TYPE":"PAYLOAD","CENTER_NAME":"EARTH","MEAN_MOTION":"15.08840342","APOAPSIS":"540.640","ARG_OF_PERICENTER":"98.0442","PERIOD":"95.438","EPOCH":"2023-04-27T09:17:10.861728","OBJECT_ID":"2022-076AE","TLE_LINE2":"2 53014  53.2176 105.6451 0001295  98.0442 262.0697 15.08840342 45348","REF_FRAME":"TEME","TLE_LINE1":"1 53014U 22076AE  23117.38693127  .00001492  00000-0  11182-3 0  9995","OBJECT_NAME":"STARLINK-4183","COUNTRY_CODE":"US","MEAN_MOTION_DOT":"0.00001492","FILE":"3895028","MEAN_ELEMENT_THEORY":"SGP4","ELEMENT_SET_NO":"999","BSTAR":"0.00011182000000","NORAD_CAT_ID":"53014","ECCENTRICITY":"0.00012950","EPHEMERIS_TYPE":"0"},{"LAUNCH_DATE":"2022-07-07","OBJECT_TYPE":"PAYLOAD","MEAN_ANOMALY":"264.8548","REV_AT_EPOCH":"4488","TIME_SYSTEM":"UTC","INCLINATION":"53.2160","SITE":"AFETR","CLASSIFICATION_TYPE":"U","RA_OF_ASC_NODE":"105.4434","SEMIMAJOR_AXIS":"6917.877","PERIAPSIS":"538.796","RCS_SIZE":"LARGE","MEAN_MOTION_DDOT":"0.0000000000000","GP_ID":"230837083","DECAY_DATE":null,"MEAN_ELEMENT_THEORY":"SGP4","EPHEMERIS_TYPE":"0","NORAD_CAT_ID":"53015","ECCENTRICITY":"0.00013670","ELEMENT_SET_NO":"999","BSTAR":"0.00012096000000","OBJECT_NAME":"STARLINK-4262","FILE":"3894751","MEAN_MOTION_DOT":"0.00001638","COUNTRY_CODE":"US","OBJECT_ID":"2022-076AF","TLE_LINE1":"1 53015U 22076AF  23117.43109533  .00001638  00000-0  12096-3 0  9992","REF_FRAME":"TEME","TLE_LINE2":"2 53015  53.2160 105.4434 0001367  95.2600 264.8548 15.08841203 44886","MEAN_MOTION":"15.08841203","CENTER_NAME":"EARTH","EPOCH":"2023-04-27T10:20:46.636512","PERIOD":"95.437","ARG_OF_PERICENTER":"95.2600","APOAPSIS":"540.687"},{"SEMIMAJOR_AXIS":"6917.884","RA_OF_ASC_NODE":"105.6879","GP_ID":"230838333","DECAY_DATE":null,"PERIAPSIS":"538.905","RCS_SIZE":"LARGE","MEAN_MOTION_DDOT":"0.0000000000000","OBJECT_TYPE":"PAYLOAD","REV_AT_EPOCH":"4487","MEAN_ANOMALY":"281.4432","LAUNCH_DATE":"2022-07-07","SITE":"AFETR","CLASSIFICATION_TYPE":"U","INCLINATION":"53.2166","TIME_SYSTEM":"UTC","TLE_LINE1":"1 53016U 22076AG  23117.37589184  .00000826  00000-0  69956-4 0  9996","REF_FRAME":"TEME","TLE_LINE2":"2 53016  53.2166 105.6879 0001220  78.6697 281.4432 15.08838752 44878","OBJECT_ID":"2022-076AG","EPOCH":"2023-04-27T09:01:17.054976","PERIOD":"95.438","ARG_OF_PERICENTER":"78.6697","APOAPSIS":"540.593","MEAN_MOTION":"15.08838752","CENTER_NAME":"EARTH","EPHEMERIS_TYPE":"0","ECCENTRICITY":"0.00012200","NORAD_CAT_ID":"53016","ELEMENT_SET_NO":"999","BSTAR":"0.00006995600000","MEAN_ELEMENT_THEORY":"SGP4","FILE":"3894751","MEAN_MOTION_DOT":"0.00000826","COUNTRY_CODE":"US","OBJECT_NAME":"STARLINK-4283"},{"MEAN_MOTION":"15.08823106","CENTER_NAME":"EARTH","PERIOD":"95.439","ARG_OF_PERICENTER":"86.8713","EPOCH":"2023-04-27T05:29:20.384160","APOAPSIS":"540.826","OBJECT_ID":"2022-076AH","TLE_LINE1":"1 53017U 22076AH  23117.22870815  .00002393  00000-0  16849-3 0  9998","TLE_LINE2":"2 53017  53.2168 106.3530 0001488  86.8713 273.2450 15.08823106 44864","REF_FRAME":"TEME","OBJECT_NAME":"STARLINK-4281","MEAN_MOTION_DOT":"0.00002393","FILE":"3894751","COUNTRY_CODE":"US","MEAN_ELEMENT_THEORY":"SGP4","EPHEMERIS_TYPE":"0","ELEMENT_SET_NO":"999","BSTAR":"0.00016849000000","ECCENTRICITY":"0.00014880","NORAD_CAT_ID":"53017","RCS_SIZE":"LARGE","PERIAPSIS":"538.768","MEAN_MOTION_DDOT":"0.0000000000000","DECAY_DATE":null,"GP_ID":"230838082","RA_OF_ASC_NODE":"106.3530","SEMIMAJOR_AXIS":"6917.932","INCLINATION":"53.2168","TIME_SYSTEM":"UTC","CLASSIFICATION_TYPE":"U","SITE":"AFETR","LAUNCH_DATE":"2022-07-07","OBJECT_TYPE":"PAYLOAD","MEAN_ANOMALY":"273.2450","REV_AT_EPOCH":"4486"},{"OBJECT_NAME":"STARLINK-4279","COUNTRY_CODE":"US","FILE":"3895028","MEAN_MOTION_DOT":"0.00001226","MEAN_ELEMENT_THEORY":"SGP4","NORAD_CAT_ID":"53018","ECCENTRICITY":"0.00015720","BSTAR":"0.00009915100000","ELEMENT_SET_NO":"999","EPHEMERIS_TYPE":"0","CENTER_NAME":"EARTH","MEAN_MOTION":"15.07209345","APOAPSIS":"545.822","ARG_OF_PERICENTER":"97.4293","PERIOD":"95.541","EPOCH":"2023-04-28T00:00:00.999648","OBJECT_ID":"2022-076AJ","REF_FRAME":"TEME","TLE_LINE2":"2 53018  53.2164 102.9388 0001572  97.4293  42.6629 15.07209345 45442","TLE_LINE1":"1 53018U 22076AJ  23118.00001157  .00001226  00000-0  99151-4 0  9993","TIME_SYSTEM":"UTC","INCLINATION":"53.2164","SITE":"AFETR","CLASSIFICATION_TYPE":"U","LAUNCH_DATE":"2022-07-07","MEAN_ANOMALY":"42.6629","REV_AT_EPOCH":"4544","OBJECT_TYPE":"PAYLOAD","MEAN_MOTION_DDOT":"0.0000000000000","PERIAPSIS":"543.646","RCS_SIZE":"LARGE","GP_ID":"230847475","DECAY_DATE":null,"RA_OF_ASC_NODE":"102.9388","SEMIMAJOR_AXIS":"6922.869"},{"REV_AT_EPOCH":"4487","MEAN_ANOMALY":"266.2836","OBJECT_TYPE":"PAYLOAD","LAUNCH_DATE":"2022-07-07","SITE":"AFETR","CLASSIFICATION_TYPE":"U","TIME_SYSTEM":"UTC","INCLINATION":"53.2159","SEMIMAJOR_AXIS":"6917.880","RA_OF_ASC_NODE":"105.7918","GP_ID":"230837583","DECAY_DATE":null,"MEAN_MOTION_DDOT":"0.0000000000000","PERIAPSIS":"538.949","RCS_SIZE":"LARGE","NORAD_CAT_ID":"53019","ECCENTRICITY":"0.00011510","ELEMENT_SET_NO":"999","BSTAR":"0.00012426000000","EPHEMERIS_TYPE":"0","MEAN_ELEMENT_THEORY":"SGP4","COUNTRY_CODE":"US","FILE":"3894751","MEAN_MOTION_DOT":"0.00001690","OBJECT_NAME":"STARLINK-4282","REF_FRAME":"TEME","TLE_LINE2":"2 53019  53.2159 105.7918 0001151  93.8288 266.2836 15.08839992 44872","TLE_LINE1":"1 53019U 22076AK  23117.35381076  .00001690  00000-0  12426-3 0  9996","OBJECT_ID":"2022-076AK","APOAPSIS":"540.542","ARG_OF_PERICENTER":"93.8288","PERIOD":"95.438","EPOCH":"2023-04-27T08:29:29.249664","CENTER_NAME":"EARTH","MEAN_MOTION":"15.08839992"},{"MEAN_ELEMENT_THEORY":"SGP4","EPHEMERIS_TYPE":"0","ELEMENT_SET_NO":"999","BSTAR":"0.00011407000000","ECCENTRICITY":"0.00012640","NORAD_CAT_ID":"53020","OBJECT_NAME":"STARLINK-4287","MEAN_MOTION_DOT":"0.00001528","FILE":"3895043","COUNTRY_CODE":"US","OBJECT_ID":"2022-076AL","TLE_LINE1":"1 53020U 22076AL  23117.36853445  .00001528  00000-0  11407-3 0  9991","TLE_LINE2":"2 53020  53.2155 105.7243 0001264  93.6420 266.4717 15.08839240 45341","REF_FRAME":"TEME","MEAN_MOTION":"15.08839240","CENTER_NAME":"EARTH","PERIOD":"95.438","EPOCH":"2023-04-27T08:50:41.376480","ARG_OF_PERICENTER":"93.6420","APOAPSIS":"540.622","LAUNCH_DATE":"2022-07-07","OBJECT_TYPE":"PAYLOAD","MEAN_ANOMALY":"266.4717","REV_AT_EPOCH":"4534","TIME_SYSTEM":"UTC","INCLINATION":"53.2155","CLASSIFICATION_TYPE":"U","SITE":"AFETR","RA_OF_ASC_NODE":"105.7243","SEMIMAJOR_AXIS":"6917.883","RCS_SIZE":"LARGE","PERIAPSIS":"538.873","MEAN_MOTION_DDOT":"0.0000000000000","DECAY_DATE":null,"GP_ID":"230847583"}];
